ONEWEB-0427             
1 50499U 21132AG  25064.50990138  .00000073  00000+0  15346-3 0  9999
2 50499  87.9047  68.6315 0001673  89.2839 270.8484 13.18684675159848
ONEWEB-0429             
1 50500U 21132AH  25064.57312601  .00000071  00000+0  14789-3 0  9990
2 50500  87.9054  68.6409 0002040  87.7064 272.4302 13.18688794161111
ONEWEB-0430             
1 50501U 21132AJ  25064.56206904 -.00000017  00000+0 -74827-4 0  9990
2 50501  87.9050  68.6389 0002051  80.3801 279.7563 13.18684854161151
ONEWEB-0432             
1 50502U 21132AK  25064.51780162  .00000116  00000+0  26099-3 0  9994
2 50502  87.9048  68.6377 0001199  63.8725 296.2530 13.18684045159819
ONEWEB-0440             
1 50503U 21132AL  25064.50515984  .00000106  00000+0  23507-3 0  9992
2 50503  87.9051  68.6368 0002232  98.0844 262.0541 13.18685113159804
ONEWEB-0450             
1 50504U 21132AM  25064.49897710  .00000073  00000+0  15228-3 0  9995
2 50504  87.9051  68.6666 0002246  85.1500 274.9888 13.18685051159837
ONEWEB-0410             
1 51622U 22012A   25064.53923791 -.00000004  00000+0 -42448-4 0  9990
2 51622  87.9017  99.2053 0001141 142.3435 217.7776 13.17647972151985
ONEWEB-0411             
1 51623U 22012B   25064.55975042  .00000477  00000+0  13298-2 0  9990
2 51623  87.8871 129.6775 0001977  85.1901 274.9452 13.10369159147916
